     2.100          NAVIGATION                              RINEX VERSION / TYPE
fic2rin                                 01/16/2009 02:46:07 PGM / RUN BY / DATE
                                                            END OF HEADER
30 09  1 15  4  0  0.0  .119872391224D-03  .238742359215D-11  .000000000000D+00
     .540000000000D+02 -.876250000000D+02  .503270963256D-08 -.420350527252D+00
    -.455044209957D-05  .111666538287D-01  .608153641224D-05  .515365205956D+04
     .360000000000D+06 -.100582838058D-06 -.151539915354D+00  .145286321640D-06
     .951119871400D+00  .257937500000D+03  .141400451506D+01 -.864607442942D-08
    -.285726187357D-09  .100000000000D+01  .151400000000D+04  .000000000000D+00
     .485000000000D+01  .000000000000D+00 -.791624188423D-08  .540000000000D+02
     .352806000000D+06  .400000000000D+01
32 09  1 15  4  0  0.0  .303430482745D-03 -.272848410532D-11  .000000000000D+00
     .950000000000D+02 -.313437500000D+02  .450411618595D-08  .293201645931D+01
    -.172294676304D-05  .136537954677D-01  .715628266335D-05  .515365911674D+04
     .360000000000D+06  .251457095146D-06  .311662015336D+01  .111758708954D-06
     .966156726500D+00  .240937500000D+03 -.121264178655D+01 -.792675875275D-08
    -.436803908922D-09  .100000000000D+01  .151400000000D+04  .000000000000D+00
     .240000000000D+01  .000000000000D+00 -.325962901115D-08  .950000000000D+02
     .352806000000D+06  .400000000000D+01
30 09  1 15  3 59 44.0  .119879376143D-03  .238742359215D-11  .000000000000D+00
     .000000000000D+00 -.876562500000D+02  .503270963256D-08 -.422684535513D+00
    -.455230474472D-05  .111666381126D-01  .608153641224D-05  .515365205956D+04
     .359984000000D+06 -.100582838058D-06 -.151539783692D+00  .145286321640D-06
     .951119872863D+00  .257937500000D+03  .141400477692D+01 -.864607442942D-08
    -.285726187357D-09  .100000000000D+01  .151400000000D+04  .000000000000D+00
     .240000000000D+01  .000000000000D+00 -.791624188423D-08  .000000000000D+00
     .353706000000D+06  .400000000000D+01
24 09  1 15  3 59 44.0  .157659407705D-03  .295585778076D-11  .000000000000D+00
     .300000000000D+01  .511875000000D+02  .519378777068D-08 -.160609469092D+00
     .265799462795D-05  .704916205723D-02  .539235770702D-05  .515366041565D+04
     .359984000000D+06  .353902578354D-07  .203513673047D+01 -.119209289551D-06
     .951015931071D+00  .267937500000D+03 -.642543101139D+00 -.858214319500D-08
     .333585323739D-09  .100000000000D+01  .151400000000D+04  .000000000000D+00
     .240000000000D+01  .000000000000D+00 -.139698386192D-08  .300000000000D+01
     .358206000000D+06  .400000000000D+01
27 09  1 15  3 59 44.0  .163661316037D-04  .306954461848D-11  .000000000000D+00
     .800000000000D+01  .429062500000D+02  .461912097636D-08 -.317118876200D+00
     .240467488766D-05  .210756885353D-01  .481121242046D-05  .515519570351D+04
     .359984000000D+06 -.249594449997D-06 -.121620851981D+01  .191852450371D-06
     .972400656893D+00  .296687500000D+03 -.166263576370D+01 -.864107422114D-08
     .354300472323D-09  .100000000000D+01  .151400000000D+04  .000000000000D+00
     .240000000000D+01  .000000000000D+00 -.465661287308D-08  .800000000000D+01
     .359766000000D+06  .400000000000D+01
24 09  1 15  5 59 44.0  .157681293786D-03  .295585778076D-11  .000000000000D+00
     .400000000000D+01  .530937500000D+02  .509878381338D-08  .889562341339D+00
     .281631946564D-05  .704913190566D-02  .542216002941D-05  .515366046715D+04
     .367184000000D+06  .199303030968D-06  .203507514016D+01 -.106170773506D-06
     .951018805705D+00  .269312500000D+03 -.642521065204D+00 -.846749556232D-08
     .328227957726D-09  .100000000000D+01  .151400000000D+04  .000000000000D+00
     .240000000000D+01  .000000000000D+00 -.139698386192D-08  .400000000000D+01
     .360006000000D+06  .400000000000D+01
27 09  1 15  5 59 44.0  .163884833455D-04  .306954461848D-11  .000000000000D+00
     .900000000000D+01  .371250000000D+02  .464483633322D-08  .732106029783D+00
     .193342566490D-05  .210772532737D-01  .566430389881D-05  .515519890213D+04
     .367184000000D+06 -.312924385071D-06 -.121626984972D+01 -.819563865662D-07
     .972402349490D+00  .286281250000D+03 -.166261003390D+01 -.862071623029D-08
     .174292974288D-09  .100000000000D+01  .151400000000D+04  .000000000000D+00
     .240000000000D+01  .000000000000D+00 -.465661287308D-08  .900000000000D+01
     .360006000000D+06  .400000000000D+01
30 09  1 15  5 59 44.0  .119896139950D-03  .238742359215D-11  .000000000000D+00
     .100000000000D+01 -.864062500000D+02  .502556647787D-08  .627518495053D+00
    -.453554093838D-05  .111667913152D-01  .616163015366D-05  .515365233803D+04
     .367184000000D+06 -.156462192535D-06 -.151601496891D+00  .223517417908D-07
     .951117450271D+00  .257000000000D+03  .141399905106D+01 -.862928801591D-08
    -.380372986919D-09  .100000000000D+01  .151400000000D+04  .000000000000D+00
     .240000000000D+01  .000000000000D+00 -.791624188423D-08  .100000000000D+01
     .360006000000D+06  .400000000000D+01
 2 09  1 15  6  0  0.0  .161575619131D-03 -.181898940355D-11  .000000000000D+00
     .810000000000D+02  .542812500000D+02  .521986028528D-08 -.126857080075D+01
     .283122062683D-05  .890018267091D-02  .577606260777D-05  .515359725952D+04
     .367200000000D+06 -.119209289551D-06  .197259896922D+01 -.633299350739D-07
     .941581469973D+00  .260593750000D+03  .269945587778D+01 -.849178228825D-08
     .401088135502D-09  .100000000000D+01  .151400000000D+04  .000000000000D+00
     .340000000000D+01  .000000000000D+00 -.172294676304D-07  .810000000000D+02
     .360006000000D+06  .400000000000D+01
 3 09  1 15  6  0  0.0  .339124351740D-03  .534328137292D-11  .000000000000D+00
     .105000000000D+03 -.310937500000D+02  .498735060031D-08 -.162021743873D+01
    -.160746276379D-05  .115985694574D-01  .119190663099D-04  .515373478317D+04
     .367200000000D+06  .264495611191D-06  .826063366844D+00 -.111758708954D-06
     .926202460279D+00  .128093750000D+03  .887869197990D+00 -.812140971788D-08
     .546451333320D-10  .100000000000D+01  .151400000000D+04  .000000000000D+00
     .240000000000D+01  .000000000000D+00 -.419095158577D-08  .105000000000D+03
     .360006000000D+06  .400000000000D+01
 4 09  1 15  6  0  0.0 -.300320331007D-03 -.134150468512D-10  .000000000000D+00
     .290000000000D+02  .547500000000D+02  .526700510619D-08  .157128312595D+01
     .296905636787D-05  .863953260705D-02  .611133873463D-05  .515365823936D+04
     .367200000000D+06 -.102445483208D-06  .199114756064D+01  .115483999252D-06
     .940832186740D+00  .254000000000D+03  .464293366471D+00 -.855714215360D-08
     .159649507186D-09  .100000000000D+01  .151400000000D+04  .000000000000D+00
     .240000000000D+01  .000000000000D+00 -.605359673500D-08  .290000000000D+02
     .360006000000D+06  .400000000000D+01
 5 09  1 15  6  0  0.0 -.546144321561D-03 -.572981662117D-10  .000000000000D+00
     .960000000000D+02 -.846562500000D+02  .514057126828D-08  .116475822200D+01
    -.452250242233D-05  .938261044212D-02  .567361712456D-05  .515363625145D+04
     .367200000000D+06 -.229105353355D-06 -.204694680961D+00 -.130385160446D-07
     .945158531429D+00  .262593750000D+03  .129511713458D+01 -.863178812005D-08
    -.325727853587D-09  .100000000000D+01  .151400000000D+04  .000000000000D+00
     .485000000000D+01  .000000000000D+00 -.419095158577D-08  .960000000000D+02
     .360006000000D+06  .400000000000D+01
 6 09  1 15  6  0  0.0  .918414443731D-04 -.122781784739D-10  .000000000000D+00
     .900000000000D+01 -.277187500000D+02  .488734643474D-08  .917003986885D+00
    -.146776437759D-05  .564068148378D-02  .125393271446D-04  .515372002792D+04
     .367200000000D+06 -.409781932831D-07  .892570282312D+00 -.949949026108D-07
     .933664401636D+00  .126062500000D+03 -.148000321425D+01 -.827177312398D-08
     .146434671020D-10  .100000000000D+01  .151400000000D+04  .000000000000D+00
     .240000000000D+01  .000000000000D+00 -.465661287308D-08  .900000000000D+01
     .360006000000D+06  .400000000000D+01
 7 09  1 15  6  0  0.0  .233249738812D-04 -.113686837722D-12  .000000000000D+00
     .350000000000D+02  .379375000000D+02  .467626621383D-08 -.308471339511D+01
     .203028321266D-05  .230507354718D-02  .456720590591D-05  .515368061829D+04
     .367200000000D+06 -.651925802231D-07 -.115723904251D+01 -.111758708954D-07
     .965422110483D+00  .295843750000D+03  .291909487842D+01 -.828570227561D-08
     .289654922433D-09  .100000000000D+01  .151400000000D+04  .000000000000D+00
     .240000000000D+01  .000000000000D+00 -.107102096081D-07  .350000000000D+02
     .360006000000D+06  .400000000000D+01
 8 09  1 15  6  0  0.0 -.186425633729D-03 -.159161572810D-11  .000000000000D+00
     .640000000000D+02  .296562500000D+02  .423231915022D-08  .253093154204D+01
     .162050127983D-05  .105086306576D-01  .465661287308D-05  .515369009590D+04
     .367200000000D+06 -.180676579475D-06 -.109959989610D+01  .201165676117D-06
     .986615454437D+00  .306906250000D+03  .297134584738D+01 -.804319217410D-08
     .227866634417D-09  .100000000000D+01  .151400000000D+04  .000000000000D+00
     .485000000000D+01  .000000000000D+00 -.419095158577D-08  .640000000000D+02
     .360006000000D+06  .400000000000D+01
 9 09  1 15  6  0  0.0  .350680202246D-04  .193267624127D-11  .000000000000D+00
     .860000000000D+02  .486562500000D+02  .437482508617D-08  .226542834946D+01
     .221468508244D-05  .201363373781D-01  .417046248913D-05  .515365117836D+04
     .367200000000D+06  .286847352982D-06 -.119223717196D+01 -.169500708580D-06
     .974376117099D+00  .301156250000D+03  .145731330802D+01 -.791282960111D-08
     .264296723305D-09  .100000000000D+01  .151400000000D+04  .000000000000D+00
     .240000000000D+01  .000000000000D+00 -.558793544769D-08  .860000000000D+02
     .360006000000D+06  .400000000000D+01
